SL-14 R/B               
1 16792U 86046B   26030.27983847  .00000673  00000+0  74820-4 0  9998
2 16792  82.4829 116.4757 0023014 358.7709   1.3446 14.85551281120708
SL-14 R/B               
1 16882U 86055B   26030.48012882  .00000815  00000+0  91058-4 0  9993
2 16882  82.5227 162.5744 0020375  98.1209 330.6004 14.85599055113695
AJISAI (EGS)            
1 16908U 86061A   26030.48076384 -.00000077  00000+0  14333-3 0  9997
2 16908  50.0064 210.8401 0011268 188.7284 201.9495 12.44515396463242
COSMOS 1812             
1 17295U 87003A   26030.06265228  .00218269  15874-4  72875-3 0  9993
2 17295  82.4791 239.2079 0000757  21.9181 338.2124 15.90126175138293
SL-14 R/B               
1 17567U 87024B   26030.52923157  .00000711  00000+0  78152-4 0  9997
2 17567  82.5300 128.6253 0018967  31.3037 328.9305 14.86092996 82465
COSMOS 1833             
1 17589U 87027A   26030.49235475  .00000178  00000+0  12065-3 0  9996
2 17589  70.9200  46.2978 0024713 265.3252  94.5046 14.13053583  4924
SL-16 R/B               
1 17590U 87027B   26030.29428974  .00000253  00000+0  14913-3 0  9992
2 17590  71.0044 357.4008 0005656 205.0525 155.0325 14.17162023  9904
SL-14 R/B               
1 17912U 87038B   26030.30242675  .00000805  00000+0  90746-4 0  9998
2 17912  82.5040 332.9594 0017841 293.7713  66.1631 14.85327336 73532
COSMOS 1844             
1 17973U 87041A   26030.49714516  .00000017  00000+0  33885-4 0  9993
2 17973  70.8985 114.7367 0028569  79.2370 281.1966 14.14534934998189
SL-14 R/B               
1 18153U 87055B   26030.48805957  .00000691  00000+0  76772-4 0  9998
2 18153  82.4983  25.0333 0021719 136.6584 223.6345 14.85580906 64262
COSMOS 1867             
1 18187U 87060A   26030.43649986 -.00000001  00000+0  37363-4 0  9993
2 18187  65.0103  53.8309 0014020 275.7799  84.1687 14.31496425 14461
SL-14 R/B               
1 18749U 88001B   26030.41342127  .00000621  00000+0  69002-4 0  9990
2 18749  82.5103 231.3643 0018319   9.8006 350.3563 14.85481819 36347
