CCSDS_OMM_VERS = 2.0
CREATION_DATE  = 
ORIGINATOR     = 

OBJECT_NAME    = SL-14 R/B
OBJECT_ID      = 1986-046B
CENTER_NAME    = EARTH
REF_FRAME      = TEME
TIME_SYSTEM    = UTC
MEAN_ELEMENT_THEORY = SGP/SGP4

EPOCH          = 2026-01-30T06:42:58.043808
MEAN_MOTION    = 14.85551281
ECCENTRICITY   = .0023014
INCLINATION    = 82.4829
RA_OF_ASC_NODE = 116.4757
ARG_OF_PERICENTER = 358.7709
MEAN_ANOMALY   = 1.3446

EPHEMERIS_TYPE = 0
CLASSIFICATION_TYPE = U
NORAD_CAT_ID   = 16792
ELEMENT_SET_NO = 999
REV_AT_EPOCH   = 12070
BSTAR          = .7482E-4
MEAN_MOTION_DOT = .673E-5
MEAN_MOTION_DDOT = 0

CCSDS_OMM_VERS = 2.0
CREATION_DATE  = 
ORIGINATOR     = 

OBJECT_NAME    = SL-14 R/B
OBJECT_ID      = 1986-055B
CENTER_NAME    = EARTH
REF_FRAME      = TEME
TIME_SYSTEM    = UTC
MEAN_ELEMENT_THEORY = SGP/SGP4

EPOCH          = 2026-01-30T11:31:23.130048
MEAN_MOTION    = 14.85599055
ECCENTRICITY   = .0020375
INCLINATION    = 82.5227
RA_OF_ASC_NODE = 162.5744
ARG_OF_PERICENTER = 98.1209
MEAN_ANOMALY   = 330.6004

EPHEMERIS_TYPE = 0
CLASSIFICATION_TYPE = U
NORAD_CAT_ID   = 16882
ELEMENT_SET_NO = 999
REV_AT_EPOCH   = 11369
BSTAR          = .91058E-4
MEAN_MOTION_DOT = .815E-5
MEAN_MOTION_DDOT = 0

CCSDS_OMM_VERS = 2.0
CREATION_DATE  = 
ORIGINATOR     = 

OBJECT_NAME    = AJISAI (EGS)
OBJECT_ID      = 1986-061A
CENTER_NAME    = EARTH
REF_FRAME      = TEME
TIME_SYSTEM    = UTC
MEAN_ELEMENT_THEORY = SGP/SGP4

EPOCH          = 2026-01-30T11:32:17.995776
MEAN_MOTION    = 12.44515396
ECCENTRICITY   = .0011268
INCLINATION    = 50.0064
RA_OF_ASC_NODE = 210.8401
ARG_OF_PERICENTER = 188.7284
MEAN_ANOMALY   = 201.9495

EPHEMERIS_TYPE = 0
CLASSIFICATION_TYPE = U
NORAD_CAT_ID   = 16908
ELEMENT_SET_NO = 999
REV_AT_EPOCH   = 46324
BSTAR          = .14333E-3
MEAN_MOTION_DOT = -.77E-6
MEAN_MOTION_DDOT = 0

CCSDS_OMM_VERS = 2.0
CREATION_DATE  = 
ORIGINATOR     = 

OBJECT_NAME    = COSMOS 1812
OBJECT_ID      = 1987-003A
CENTER_NAME    = EARTH
REF_FRAME      = TEME
TIME_SYSTEM    = UTC
MEAN_ELEMENT_THEORY = SGP/SGP4

EPOCH          = 2026-01-30T01:30:13.156992
MEAN_MOTION    = 15.90126175
ECCENTRICITY   = .00007577
INCLINATION    = 82.4791
RA_OF_ASC_NODE = 239.2079
ARG_OF_PERICENTER = 21.9181
MEAN_ANOMALY   = 338.2124

EPHEMERIS_TYPE = 0
CLASSIFICATION_TYPE = U
NORAD_CAT_ID   = 17295
ELEMENT_SET_NO = 999
REV_AT_EPOCH   = 13829
BSTAR          = .72875402E-3
MEAN_MOTION_DOT = .218269E-2
MEAN_MOTION_DDOT = .15873732E-4

CCSDS_OMM_VERS = 2.0
CREATION_DATE  = 
ORIGINATOR     = 

OBJECT_NAME    = SL-14 R/B
OBJECT_ID      = 1987-024B
CENTER_NAME    = EARTH
REF_FRAME      = TEME
TIME_SYSTEM    = UTC
MEAN_ELEMENT_THEORY = SGP/SGP4

EPOCH          = 2026-01-30T12:42:05.607648
MEAN_MOTION    = 14.86092996
ECCENTRICITY   = .0018967
INCLINATION    = 82.5300
RA_OF_ASC_NODE = 128.6253
ARG_OF_PERICENTER = 31.3037
MEAN_ANOMALY   = 328.9305

EPHEMERIS_TYPE = 0
CLASSIFICATION_TYPE = U
NORAD_CAT_ID   = 17567
ELEMENT_SET_NO = 999
REV_AT_EPOCH   = 8246
BSTAR          = .78152E-4
MEAN_MOTION_DOT = .711E-5
MEAN_MOTION_DDOT = 0

CCSDS_OMM_VERS = 2.0
CREATION_DATE  = 
ORIGINATOR     = 

OBJECT_NAME    = COSMOS 1833
OBJECT_ID      = 1987-027A
CENTER_NAME    = EARTH
REF_FRAME      = TEME
TIME_SYSTEM    = UTC
MEAN_ELEMENT_THEORY = SGP/SGP4

EPOCH          = 2026-01-30T11:48:59.450400
MEAN_MOTION    = 14.13053583
ECCENTRICITY   = .0024713
INCLINATION    = 70.9200
RA_OF_ASC_NODE = 46.2978
ARG_OF_PERICENTER = 265.3252
MEAN_ANOMALY   = 94.5046

EPHEMERIS_TYPE = 0
CLASSIFICATION_TYPE = U
NORAD_CAT_ID   = 17589
ELEMENT_SET_NO = 999
REV_AT_EPOCH   = 492
BSTAR          = .12065E-3
MEAN_MOTION_DOT = .178E-5
MEAN_MOTION_DDOT = 0

CCSDS_OMM_VERS = 2.0
CREATION_DATE  = 
ORIGINATOR     = 

OBJECT_NAME    = SL-16 R/B
OBJECT_ID      = 1987-027B
CENTER_NAME    = EARTH
REF_FRAME      = TEME
TIME_SYSTEM    = UTC
MEAN_ELEMENT_THEORY = SGP/SGP4

EPOCH          = 2026-01-30T07:03:46.633536
MEAN_MOTION    = 14.17162023
ECCENTRICITY   = .0005656
INCLINATION    = 71.0044
RA_OF_ASC_NODE = 357.4008
ARG_OF_PERICENTER = 205.0525
MEAN_ANOMALY   = 155.0325

EPHEMERIS_TYPE = 0
CLASSIFICATION_TYPE = U
NORAD_CAT_ID   = 17590
ELEMENT_SET_NO = 999
REV_AT_EPOCH   = 990
BSTAR          = .14913E-3
MEAN_MOTION_DOT = .253E-5
MEAN_MOTION_DDOT = 0

CCSDS_OMM_VERS = 2.0
CREATION_DATE  = 
ORIGINATOR     = 

OBJECT_NAME    = SL-14 R/B
OBJECT_ID      = 1987-038B
CENTER_NAME    = EARTH
REF_FRAME      = TEME
TIME_SYSTEM    = UTC
MEAN_ELEMENT_THEORY = SGP/SGP4

EPOCH          = 2026-01-30T07:15:29.671200
MEAN_MOTION    = 14.85327336
ECCENTRICITY   = .0017841
INCLINATION    = 82.5040
RA_OF_ASC_NODE = 332.9594
ARG_OF_PERICENTER = 293.7713
MEAN_ANOMALY   = 66.1631

EPHEMERIS_TYPE = 0
CLASSIFICATION_TYPE = U
NORAD_CAT_ID   = 17912
ELEMENT_SET_NO = 999
REV_AT_EPOCH   = 7353
BSTAR          = .90746E-4
MEAN_MOTION_DOT = .805E-5
MEAN_MOTION_DDOT = 0

CCSDS_OMM_VERS = 2.0
CREATION_DATE  = 
ORIGINATOR     = 

OBJECT_NAME    = COSMOS 1844
OBJECT_ID      = 1987-041A
CENTER_NAME    = EARTH
REF_FRAME      = TEME
TIME_SYSTEM    = UTC
MEAN_ELEMENT_THEORY = SGP/SGP4

EPOCH          = 2026-01-30T11:55:53.341824
MEAN_MOTION    = 14.14534934
ECCENTRICITY   = .0028569
INCLINATION    = 70.8985
RA_OF_ASC_NODE = 114.7367
ARG_OF_PERICENTER = 79.2370
MEAN_ANOMALY   = 281.1966

EPHEMERIS_TYPE = 0
CLASSIFICATION_TYPE = U
NORAD_CAT_ID   = 17973
ELEMENT_SET_NO = 999
REV_AT_EPOCH   = 99818
BSTAR          = .33885E-4
MEAN_MOTION_DOT = .17E-6
MEAN_MOTION_DDOT = 0

CCSDS_OMM_VERS = 2.0
CREATION_DATE  = 
ORIGINATOR     = 

OBJECT_NAME    = SL-14 R/B
OBJECT_ID      = 1987-055B
CENTER_NAME    = EARTH
REF_FRAME      = TEME
TIME_SYSTEM    = UTC
MEAN_ELEMENT_THEORY = SGP/SGP4

EPOCH          = 2026-01-30T11:42:48.346848
MEAN_MOTION    = 14.85580906
ECCENTRICITY   = .0021719
INCLINATION    = 82.4983
RA_OF_ASC_NODE = 25.0333
ARG_OF_PERICENTER = 136.6584
MEAN_ANOMALY   = 223.6345

EPHEMERIS_TYPE = 0
CLASSIFICATION_TYPE = U
NORAD_CAT_ID   = 18153
ELEMENT_SET_NO = 999
REV_AT_EPOCH   = 6426
BSTAR          = .76772E-4
MEAN_MOTION_DOT = .691E-5
MEAN_MOTION_DDOT = 0

CCSDS_OMM_VERS = 2.0
CREATION_DATE  = 
ORIGINATOR     = 

OBJECT_NAME    = COSMOS 1867
OBJECT_ID      = 1987-060A
CENTER_NAME    = EARTH
REF_FRAME      = TEME
TIME_SYSTEM    = UTC
MEAN_ELEMENT_THEORY = SGP/SGP4

EPOCH          = 2026-01-30T10:28:33.587904
MEAN_MOTION    = 14.31496425
ECCENTRICITY   = .001402
INCLINATION    = 65.0103
RA_OF_ASC_NODE = 53.8309
ARG_OF_PERICENTER = 275.7799
MEAN_ANOMALY   = 84.1687

EPHEMERIS_TYPE = 0
CLASSIFICATION_TYPE = U
NORAD_CAT_ID   = 18187
ELEMENT_SET_NO = 999
REV_AT_EPOCH   = 1446
BSTAR          = .37363E-4
MEAN_MOTION_DOT = -.1E-7
MEAN_MOTION_DDOT = 0

CCSDS_OMM_VERS = 2.0
CREATION_DATE  = 
ORIGINATOR     = 

OBJECT_NAME    = SL-14 R/B
OBJECT_ID      = 1988-001B
CENTER_NAME    = EARTH
REF_FRAME      = TEME
TIME_SYSTEM    = UTC
MEAN_ELEMENT_THEORY = SGP/SGP4

EPOCH          = 2026-01-30T09:55:19.597728
MEAN_MOTION    = 14.85481819
ECCENTRICITY   = .0018319
INCLINATION    = 82.5103
RA_OF_ASC_NODE = 231.3643
ARG_OF_PERICENTER = 9.8006
MEAN_ANOMALY   = 350.3563

EPHEMERIS_TYPE = 0
CLASSIFICATION_TYPE = U
NORAD_CAT_ID   = 18749
ELEMENT_SET_NO = 999
REV_AT_EPOCH   = 3634
BSTAR          = .69002E-4
MEAN_MOTION_DOT = .621E-5
MEAN_MOTION_DDOT = 0

